{
  "type": "FeatureCollection",
  "features": [
    {
      "type": "Feature",
      "properties": {
        "norad_id": 28051,
        "name": "IRS-P6 (RESOURCESAT-1)",
        "group": "resource",
        "lat": 79.69643854583396,
        "lon": -18.93644800434573,
        "alt_km": 752.9150041672747,
        "timestamp": "2025-12-19T14:48:35.900828+00:00",
        "meta_object_name": "IRS-P6 (RESOURCESAT-1)",
        "meta_object_id": "2003-046A",
        "meta_epoch": "2025-12-19T06:40:28.865568",
        "meta_mean_motion": 14.36077518,
        "meta_eccentricity": 0.00645677,
        "meta_inclination": 98.2172,
        "meta_ra_of_asc_node": 33.3826,
        "meta_arg_of_pericenter": 161.1348,
        "meta_mean_anomaly": 331.9451,
        "meta_ephemeris_type": 0,
        "meta_classification_type": "U",
        "meta_norad_cat_id": 28051,
        "meta_element_set_no": 999,
        "meta_rev_at_epoch": 15470,
        "meta_bstar": 4.908243e-05,
        "meta_mean_motion_dot": 1.05e-06,
        "meta_mean_motion_ddot": 0,
        "tle_line1": "1 28051U 03046A   25353.27811187  .00000105  00000+0  49082-4 0  9994",
        "tle_line2": "2 28051  98.2172  33.3826 0064567 161.1348 331.9451 14.36077518154709"
      },
      "geometry": {
        "type": "Point",
        "coordinates": [
          -18.93644800434573,
          79.69643854583396
        ]
      }
    },
    {
      "type": "Feature",
      "properties": {
        "norad_id": 28220,
        "name": "SHIYAN-1 (SY-1)",
        "group": "resource",
        "lat": 74.3166897781507,
        "lon": 25.949846792277146,
        "alt_km": 476.4905017956835,
        "timestamp": "2025-12-19T14:48:35.900840+00:00",
        "meta_object_name": "SHIYAN-1 (SY-1)",
        "meta_object_id": "2004-012A",
        "meta_epoch": "2025-12-19T03:28:38.259264",
        "meta_mean_motion": 15.28303655,
        "meta_eccentricity": 0.0005285,
        "meta_inclination": 97.8932,
        "meta_ra_of_asc_node": 55.062,
        "meta_arg_of_pericenter": 299.4151,
        "meta_mean_anomaly": 60.656,
        "meta_ephemeris_type": 0,
        "meta_classification_type": "U",
        "meta_norad_cat_id": 28220,
        "meta_element_set_no": 999,
        "meta_rev_at_epoch": 18354,
        "meta_bstar": 0.00036633035,
        "meta_mean_motion_dot": 0.00010025,
        "meta_mean_motion_ddot": 0,
        "tle_line1": "1 28220U 04012A   25353.14488726  .00010025  00000+0  36633-3 0  9990",
        "tle_line2": "2 28220  97.8932  55.0620 0005285 299.4151  60.6560 15.28303655183545"
      },
      "geometry": {
        "type": "Point",
        "coordinates": [
          25.949846792277146,
          74.3166897781507
        ]
      }
    },
    {
      "type": "Feature",
      "properties": {
        "norad_id": 28376,
        "name": "AURA",
        "group": "resource",
        "lat": -65.2304069929199,
        "lon": 105.38710408365245,
        "alt_km": 698.1448792583087,
        "timestamp": "2025-12-19T14:48:35.900852+00:00",
        "meta_object_name": "AURA",
        "meta_object_id": "2004-026A",
        "meta_epoch": "2025-12-19T05:27:58.781952",
        "meta_mean_motion": 14.60960787,
        "meta_eccentricity": 0.00013467,
        "meta_inclination": 98.3193,
        "meta_ra_of_asc_node": 303.4847,
        "meta_arg_of_pericenter": 93.2087,
        "meta_mean_anomaly": 266.9268,
        "meta_ephemeris_type": 0,
        "meta_classification_type": "U",
        "meta_norad_cat_id": 28376,
        "meta_element_set_no": 999,
        "meta_rev_at_epoch": 13993,
        "meta_bstar": 0.000161019,
        "meta_mean_motion_dot": 7.41e-06,
        "meta_mean_motion_ddot": 0,
        "tle_line1": "1 28376U 04026A   25353.22776368  .00000741  00000+0  16102-3 0  9991",
        "tle_line2": "2 28376  98.3193 303.4847 0001346  93.2087 266.9268 14.60960787139935"
      },
      "geometry": {
        "type": "Point",
        "coordinates": [
          105.38710408365245,
          -65.2304069929199
        ]
      }
    },
    {
      "type": "Feature",
      "properties": {
        "norad_id": 28649,
        "name": "IRS-P5 (CARTOSAT-1)",
        "group": "resource",
        "lat": 70.97763503183893,
        "lon": -137.65371649293996,
        "alt_km": 589.4700542455503,
        "timestamp": "2025-12-19T14:48:35.900864+00:00",
        "meta_object_name": "IRS-P5 (CARTOSAT-1)",
        "meta_object_id": "2005-017A",
        "meta_epoch": "2025-12-19T01:26:21.591168",
        "meta_mean_motion": 14.90425359,
        "meta_eccentricity": 8.495e-05,
        "meta_inclination": 97.5487,
        "meta_ra_of_asc_node": 19.193,
        "meta_arg_of_pericenter": 48.6055,
        "meta_mean_anomaly": 311.5236,
        "meta_ephemeris_type": 0,
        "meta_classification_type": "U",
        "meta_norad_cat_id": 28649,
        "meta_element_set_no": 999,
        "meta_rev_at_epoch": 11698,
        "meta_bstar": 0.00012132886,
        "meta_mean_motion_dot": 1.13e-05,
        "meta_mean_motion_ddot": 0,
        "tle_line1": "1 28649U 05017A   25353.05997212  .00001130  00000+0  12133-3 0  9992",
        "tle_line2": "2 28649  97.5487  19.1930 0000849  48.6055 311.5236 14.90425359116981"
      },
      "geometry": {
        "type": "Point",
        "coordinates": [
          -137.65371649293996,
          70.97763503183893
        ]
      }
    },
    {
      "type": "Feature",
      "properties": {
        "norad_id": 28893,
        "name": "SINAH 1",
        "group": "resource",
        "lat": 12.307151274009822,
        "lon": -55.99094443689923,
        "alt_km": 674.6465008834075,
        "timestamp": "2025-12-19T14:48:35.900875+00:00",
        "meta_object_name": "SINAH 1",
        "meta_object_id": "2005-043D",
        "meta_epoch": "2025-12-19T07:29:14.925984",
        "meta_mean_motion": 14.63969123,
        "meta_eccentricity": 0.00156038,
        "meta_inclination": 98.2607,
        "meta_ra_of_asc_node": 121.8869,
        "meta_arg_of_pericenter": 117.7351,
        "meta_mean_anomaly": 242.5436,
        "meta_ephemeris_type": 0,
        "meta_classification_type": "U",
        "meta_norad_cat_id": 28893,
        "meta_element_set_no": 999,
        "meta_rev_at_epoch": 7420,
        "meta_bstar": 6.8831896e-05,
        "meta_mean_motion_dot": 3.12e-06,
        "meta_mean_motion_ddot": 0,
        "tle_line1": "1 28893U 05043D   25353.31197831  .00000312  00000+0  68832-4 0  9999",
        "tle_line2": "2 28893  98.2607 121.8869 0015603 117.7351 242.5436 14.63969123 74202"
      },
      "geometry": {
        "type": "Point",
        "coordinates": [
          -55.99094443689923,
          12.307151274009822
        ]
      }
    },
    {
      "type": "Feature",
      "properties": {
        "norad_id": 29079,
        "name": "EROS B",
        "group": "resource",
        "lat": -79.05629086418023,
        "lon": -111.32922113809111,
        "alt_km": 363.5906691981736,
        "timestamp": "2025-12-19T14:48:35.900886+00:00",
        "meta_object_name": "EROS B",
        "meta_object_id": "2006-014A",
        "meta_epoch": "2025-12-19T07:34:49.775232",
        "meta_mean_motion": 15.70309739,
        "meta_eccentricity": 0.00033826,
        "meta_inclination": 97.3468,
        "meta_ra_of_asc_node": 110.2123,
        "meta_arg_of_pericenter": 310.7208,
        "meta_mean_anomaly": 49.376,
        "meta_ephemeris_type": 0,
        "meta_classification_type": "U",
        "meta_norad_cat_id": 29079,
        "meta_element_set_no": 999,
        "meta_rev_at_epoch": 9183,
        "meta_bstar": 0.0010900706,
        "meta_mean_motion_dot": 0.00134289,
        "meta_mean_motion_ddot": 0,
        "tle_line1": "1 29079U 06014A   25353.31585388  .00134289  00000+0  10901-2 0  9996",
        "tle_line2": "2 29079  97.3468 110.2123 0003382 310.7208  49.3760 15.70309739 91837"
      },
      "geometry": {
        "type": "Point",
        "coordinates": [
          -111.32922113809111,
          -79.05629086418023
        ]
      }
    },
    {
      "type": "Feature",
      "properties": {
        "norad_id": 29228,
        "name": "RESURS-DK 1",
        "group": "resource",
        "lat": -32.925914311323375,
        "lon": -82.24224322841816,
        "alt_km": 531.3196256072606,
        "timestamp": "2025-12-19T14:48:35.900897+00:00",
        "meta_object_name": "RESURS-DK 1",
        "meta_object_id": "2006-021A",
        "meta_epoch": "2025-12-19T05:55:22.529856",
        "meta_mean_motion": 15.12195361,
        "meta_eccentricity": 0.00068759,
        "meta_inclination": 69.9339,
        "meta_ra_of_asc_node": 85.022,
        "meta_arg_of_pericenter": 253.8547,
        "meta_mean_anomaly": 106.1863,
        "meta_ephemeris_type": 0,
        "meta_classification_type": "U",
        "meta_norad_cat_id": 29228,
        "meta_element_set_no": 999,
        "meta_rev_at_epoch": 7536,
        "meta_bstar": 0.00011683475,
        "meta_mean_motion_dot": 1.915e-05,
        "meta_mean_motion_ddot": 0,
        "tle_line1": "1 29228U 06021A   25353.24678854  .00001915  00000+0  11683-3 0  9991",
        "tle_line2": "2 29228  69.9339  85.0220 0006875 253.8547 106.1863 15.12195361 75361"
      },
      "geometry": {
        "type": "Point",
        "coordinates": [
          -82.24224322841816,
          -32.925914311323375
        ]
      }
    }
  ]
}